STARLINK-2022           
1 47643U 21012Z   24226.97956875  .00024829  00000+0  16812-2 0  9996
2 47643  53.0524 102.6133 0001330 101.6508 258.4631 15.06371621193429
